Sr.No,"School Code",School,City,Address,"Phone Nos","Principal Name",State,Pincode,"Co-ordinator1 Name","Co-ordinator1 Contact No.","Co-ordinator2 Name","Co-ordinator2 Contact No."
1,5184,"Sishu Griha Montessori and High School",Bangalore,"No.3, Hal III Stage, New Thippasandra, ","080-25213940, 25213941, 25213941","Ms. Sujatha Mohandas",Karnataka,560075,"Ms. Madhulika Chandrakumar",9880387469,,
2,10833,"St. Kabir School, Drive-In New Branch",Ahmedabad,"Opp. Goyal Intercity, Drive-In (New Branch Way), Drive-In Road, ","079-26858695, 9925034673","Mrs. Pragya Pandya",Gujarat,380054,"Jalaja Nanavati",9925043239,,
3,18922,"Sri Kumaran Children^s Home - CBSE",Bangalore,"Survey no.44-50, Malla Sandra Village, Uttarahalli, Hobli, Kanakapura Main Road, ","080-26080201, 26080202","Mrs. Deepa Sridhar",Karnataka,560062,"Mrs.Chetana Mahadevan",8197818005,"Ms Kavita",9742751100
4,19966,"Padma Seshadri Bala Bhavan Senior Secondary School",Chennai,"15, Lake, 1st Main Road, Nungambakkam,","044-28172459, 28341892","Shyamala Shekhar","Tamil Nadu",600034,"Mini Premkumar",9444515870,,
5,24299,"The East - West School",Bangalore,"No. 1, Arumugam Circle, Basavanagudi, ","080-26574112, 26574113, 26574114, 26574115","Ms.Gayathry B H",Karnataka,560004,"Mrs. Shilpa. M",9620800313,,
6,34289,"B B U L Jain Vidyalaya",Bangalore,"84, Krishnarajendra Road, Shankarapuram, ",080-41554379,"Mrs. S. A. Sridevi",Karnataka,560004,"Mrs. B. R. Shardamba",9880011468,,
7,68757,"Acharya Vidya Kula",Mysore,"Aloka Road, Left Fork, Off. Mysore Madikeri Highway, At 12th KM Stone, ","0821-2402150, 2513950","Mrs. Sarojini B T",Karnataka,571130,"Suchethana B C",9632374123,,
8,159527,"St. Mary^s School (ICSE),  Mazagaon",Mumbai,"Sardar Balwant Singh Dhody Marg, Mazagaon","022-23778264, 23771889, 23712912","Fr. Dr. Francis Anthony Swamy S.J.",Maharashtra,400010,,,,
9,370457,"Sri Kumaran Public School - ICSE",Bangalore,"Survey No. 44 to 50, Mallasandra Village, Uttarahalli, Hobli, Off. Kanakapura Road, ","080-22538105, 65839367, 65839368, 65839370","Ms. Jayasree Ramesh",Karnataka,560062,"Ms. Geetha Venkatesh",9739444882,,
10,416648,"Vibgyor High, Goregaon",Mumbai,"Motilal Nagar-1, Srirang Sabde Marg, Off Link Road, Goregaon (West), ","022-2879 9220, 39577070","Mr. Shim Mathew",Maharashtra,400104,"Mrs. Nisha Nair ",8097770389,,
11,438252,"Jankidevi Public School",Mumbai,"4 Bunglows, Mhada, Andheri West, ","022-26334756, 26369845","Ms Sunita Massey",Maharashtra,400053,"Ms. Pritpal Bilora",9820802473,,
12,484541,"St. Francis Xaviers",Hissar,"8 km Barwala Road, Talawandi Road, Hissar","01662-296795,296056,9813186557","Fr. Lov Dias",Haryana,125001,"Mrs Veerangana",9466116557,,
13,569920,"St. Xaviers School Durgapur",Durgapur,"A.B.L. Township  Burdwan","0343-2555809,92335 16998 ","Fr. Zenith William,S.J","West Bengal",713206,,,,
14,574725,"The Gelivi^s Venkateshwara Vidyalaya",Nandyal,"D. NO : 29/154-C1, Tekke, Kurnool District.","08514-221132, 221141","Mrs. Gelvi Sucharitha","Andhra Pradesh",518501,,,,
15,575163,"Primus Public School",Bangalore,"P.O.Box No.21, Chikkanayakanahalli Village, Off Sarjapur Road, Bangalore","080-25741450,25741452, 7022010930","Anuradha Krishnan",Karnataka,560035,"Mrs.Soumya Ashok",8105189892,,
16,579462,"Wisdom High International School",Nashik,"Rameshwar Nagar, Anandvalli, Gangapur Road, ","0253-2338795, 2338796, 2338797","Mrs. Shalini Kadwe",Maharashtra,422007,"Supriya Mahabal",8308299160,,
17,605862,"Loyola High School",Margao,"P.O. Box No. 79, Near Old Bus Stand, Bh. Police Station","0834-2733401, 8322542324","Fr. Pedro Rodrigues",Goa,403601,"Mrs. Francesca Pereira",9822383889,,
18,615868,"N. E. T. Public School",Bangalore,"# 17, 2nd Main Road, Sri Nijagunara Road, Gavipuram Extn., ",080-65905978,"Ms. Shashikala Banwasi",Karnataka,560019,"Rashmi mam",9844383826,,
19,635736,"Aga Khan School",Mundra,"G E B Road, Mudra, Kutch","02836-222583, 224215","Mr. Girdhar Reddy",Gujarat,370421,"Payal Shah",9726707723,,
20,650967,"Deens Academy -Whitefield",Bangalore,"^Deen Gardens^, ECC Road, Whitefield, ",080-28454464,"Mrs. Shanthi Menon",Karnataka,560066,"Nisha Kumar",9618409555,,
21,672693,"Good Shepherd English Medium School",Nandyal,"NGO^s Colony, Near Ramakrishna PG College, ","08514-243663, 245930, 222694","Mrs. L. T. Jessy Paul","Andhra Pradesh",518502,"Mrs. Renuka",9491592851,,
22,810256,"Sunbeam School, Annapurna",Varanasi,"Opposite Kashi Vidyapeeth, Annapurna Nagar Colony, ","0542-2222130, 2222131","Mrs. Mamta Jaiswal","Uttar Pradesh",221001,"Ms. Geeta Sharma",9721452503,"Ms. Geeta Sharma",:Â 09721452
23,1641463,"Bharatiya Vidya Bhavan Kodagu Vidyalaya",Madikeri,"P.B. No. 43, Siddapur Road, Madikeri, ",08272-225920,"Mr. Seenivasan. E",Karnataka,571201,"Ishrath N S",9008189406,,
24,1810177,"Birla Divya Jyoti",Siliguri,"Uttarayan Township, Zone-F, National Highway - 31, P.O. Matigara, ","0353-257169,2571061, 2571062","Mrs. Gayatri Rai","West Bengal",734010,"Mrs.Madhumita Roy",9832078946,,
25,1914121,"The King^s School",Salcete,"Mugalli, Sao Jose De Areal",0832-6572733,"Mrs.Liga Pereira",Goa,403709,"Mrs. Andrea Rodrigues",9225980304,,
26,2387913,"Shindewadi Mumbai Public School",Mumbai,"C/o. The Akanksha Foundation, C Block Voltas House, T.B. Kadam Marg, Chinchpokli, ","022-23729880,3700253, 8097001318","Ms. Rashmi Chainani",Maharashtra,400033,"Ms. Rashmi Chainani",9768727588,,
27,2456048,"Abhyudaya Nagar Municipal Public School",Mumbai,"C/o. The Akanksha Foundation, C Block, Voltas House, T. B. Kadam Marg, Chinchpokli, ","022-23729880,3700253","Ms Chitra Vishwanath",Maharashtra,400033,"Ms. Natasha ",9821014918,,
28,2456473,"N.E.T. Public School, ICSE",Bangalore,"#17, 2nd Main Road, Sri Nijagunava Road, Gavipuram Extension, ","080-65905978 , 65761345, 26603470","Ms.Shashikala Banwasi",Karnataka,560019,"Rashmi mam",9844383826,,
29,2470230,"The Samhita Academy",Bangalore,"No.52, Lakshmipura Village, Jigani Hobli, Bannerghatta Road, Sakalwara Post, Anekal Taluk, Off. Bannerghatta Road, ",080-46622466,"Mrs.G Pushpa Prasad",Karnataka,560083,"Ms. Jyothi",9886251121,,
30,2473155,"Sunbeam School, Indiranagar",Varanasi,"N6/9C, Indiranagar, Near DLW, Chittaipur, ","0542-22367262, 9721452300","Ms. Reena Vikram Singh","Uttar Pradesh",221005,"Mrs. Rashmi Kapoor",9721452176,,
31,2474876,"Harvest International School",Bangalore,"Survey No. 56/1B, Kodithi Village, Carmelram Post, Off. Sarjapur Road, Nr. Kodithi Farm, ","080-9686199416, 30268304, 30268303","Dr. Dakshayini Kanna",Karnataka,560035,"Neha Khandelwal",7310331111,,
32,2513220,"D. N. Nagar M.P.S.",Mumbai,"C/O Akanksha Foundation, Voltas house, C- block, T.B Kadam Marg, Chinchpokli  ",022-23729880,"Ms Sheetal Murudkar",Maharashtra,400033,"Gagandeep Kaur",,"Yogita Brande",
33,2548143,"Padma Seshadri Bala Bhavan School",Chennai,"L&T Eden Park Township, M. R. Radha Main Road, Siruseri -Pudupakkam Village, Chengalpet T.K., Dist. Kanchipuram","044-27402541, 27402542","Mrs. Kamala Krishnan","Tamil Nadu",603103,"Mrs. Nithya Priya",8220773359,,
34,2565760,"Suchitra Academy",Hyderabad,"4-102, Suchitra Junction, NH7, Near Bowenpally",040-27230981,"Mrs. Renu Shorey","Andhra Pradesh",500055,"Lalitha .R",8008882546,,
35,2746519,"Sitaram Mills MPS",Mumbai,"C/O Akanksha Foundation, Voltas house, C- block, T.B Kadam Marg, Chinchpokli","022-23700846, 23729880","Mandira Purohit",Maharashtra,400033,"Natasha Bajaj",9821014918,,
36,3210065,"GEMS Cambridge International School",Hoshiarpur,"Jalandhar-Phagwara Bye Pass Road, Hoshiarpur",01882-249312,"Mrs. Yachana Chawla",Punjab,146111,,,,
37,3286324,"Deens Academy - Gunjur",Bangalore,"Sy. No. 48/2, Kathriguppe Village, Neriga, Post-Gunjur","080-28457765, 28454691, 7676617788, 7338452406","Ms. Shanthi Menon",Karnataka,562125,"Ms.Hemalatha Pande",9620598822,,
38,3347997,"Redbridge International Academy",Bangalore,"#114, Hulimangala Post, Jigani Hobli, Bangalore",080-420300,"Mr. Browne",Karnataka,560105,"Ms. Latha sivalingam",8884388881,,
39,3389595,"Tree House High School, Mahalunge",Pune,"TTHS Kul Ecoloch, Mahalunge, Near Balewadi Sports Complex",020-65606078,"Mrs Monika Chhabra",Maharashtra,411045,"Mrs Neelam Kanaujia",9850081655,,
40,3392560,"Wadibunder MPS School ",Mumbai,"Akanksha Foundation Voltas House Chinchpokli",022-9773909822,"Ms.Prachi Sanghavi",Maharashtra,400033,"Natasha Bajaj",9821014918,,
41,3392733,"Natwar Nagar MPS ",Mumbai,"Akanksha Foundation Voltas House Chinchpokli",022-9820737494,"MS. Rekha Ghelani",Maharashtra,400033,"Natasha Bajaj",9821014918,,
42,3392859,"Mahalaxmi MPS ",Mumbai,"Akanksha Foundation Voltas House Chinchpokli",022-9769767110,"Ms. Sima Jhaveri",Maharashtra,400033,"Natasha Bajaj",9821014918,,
43,3392980,"Laxminagar MPS ",Mumbai,"C/O Akanksha Foundation, Voltas house, C- block, T.B Kadam Marg, Chinchpokli",022-9820388063,"Ms. Prachi Mangaonar",Maharashtra,400052,"Natasha Bajaj",9821014918,,
44,3438859,"Mahatma Jyotiba Phule MPS",Mumbai,"C/o Janabai &, Madhavrao Rokde Marathi School, Janjiker Street, ",022-982104918,"Ms Seema Kamble",Maharashtra,400003,"Natasha Bajaj",9821014918,,
